STARLINK-1781
1 46685U 20073R   26061.05058527  .00101744  00000+0  15650-2 0  9993
2 46685  53.0532 280.2112 0002028 188.7537 171.3438 15.53442106295910
